TOMORROW-S1             
1 60479U 24149M   26068.72470524  .00008620  00000+0  28856-3 0  9996
2 60479  97.3791 149.6044 0001819 207.2040 152.9106 15.31198362 86867
STARLINK-32457          
1 61717U 24196L   26068.52642876 -.00000701  00000+0 -11543-4 0  9993
2 61717  53.1601 101.9495 0001072 115.0692 245.0420 15.30190961 77133
